STARLINK-2209
1 17776C 21017BG  21326.14079288  .00005723  00000-0  38351-3 0  3269
2 17776  53.0545  53.1160 0001386  83.0020 250.8069 15.06388189    12
